[{"OBJECT_NAME":"STARLINK-5854","OBJECT_ID":"2023-037K","EPOCH":"2026-03-09T22:23:42.917568","MEAN_MOTION":14.98329785,"ECCENTRICITY":0.00026496,"INCLINATION":69.9996,"RA_OF_ASC_NODE":303.8424,"ARG_OF_PERICENTER":268.2364,"MEAN_ANOMALY":91.8491,"EPHEMERIS_TYPE":0,"CLASSIFICATION_TYPE":"U","NORAD_CAT_ID":55923,"ELEMENT_SET_NO":999,"REV_AT_EPOCH":16352,"BSTAR":-4.2582624e-5,"MEAN_MOTION_DOT":-6.01e-6,"MEAN_MOTION_DDOT":0},{"OBJECT_NAME":"UNKNOWN","OBJECT_ID":"","EPOCH":"2026-03-08T12:59:39.172704","MEAN_MOTION":15.0131728,"ECCENTRICITY":0.00204305,"INCLINATION":86.3534,"RA_OF_ASC_NODE":358.469,"ARG_OF_PERICENTER":121.5673,"MEAN_ANOMALY":238.7558,"EPHEMERIS_TYPE":0,"CLASSIFICATION_TYPE":"U","NORAD_CAT_ID":270086,"ELEMENT_SET_NO":999,"REV_AT_EPOCH":9441,"BSTAR":0.0053525659,"MEAN_MOTION_DOT":0.00069778,"MEAN_MOTION_DDOT":0}]
